SWAS                    
1 25560U 98071A   26068.53487068  .00004636  00000+0  29986-3 0  9991
2 25560  69.8952 124.3662 0004099  14.3215 345.8065 15.08888192482231
STARLINK-4542           
1 53435U 22097AZ  26068.80252729 -.00000377  00000+0 -56216-5 0  9990
2 53435  53.2163 103.4146 0001122  89.4077 270.7043 15.08841284198789
